<?xml version="1.0" encoding="UTF-8"?>
<ndm xmlns:xsi="http://www.w3.org/2001/XMLSchema-instance" xsi:noNamespaceSchemaLocation="https://sanaregistry.org/r/ndmxml_unqualified/ndmxml-2.0.0-master-2.0.xsd">
<omm id="CCSDS_OMM_VERS" version="2.0">
<header><CREATION_DATE/><ORIGINATOR/></header><body><segment><metadata><OBJECT_NAME>IRIDIUM 63</OBJECT_NAME><OBJECT_ID>1998-021B</OBJECT_ID><CENTER_NAME>EARTH</CENTER_NAME><REF_FRAME>TEME</REF_FRAME><TIME_SYSTEM>UTC</TIME_SYSTEM><MEAN_ELEMENT_THEORY>SGP4</MEAN_ELEMENT_THEORY></metadata><data><meanElements><EPOCH>2025-05-15T10:35:15.962208</EPOCH><MEAN_MOTION>14.36520590</MEAN_MOTION><ECCENTRICITY>.0002399</ECCENTRICITY><INCLINATION>86.3955</INCLINATION><RA_OF_ASC_NODE>95.8695</RA_OF_ASC_NODE><ARG_OF_PERICENTER>83.6968</ARG_OF_PERICENTER><MEAN_ANOMALY>276.4502</MEAN_ANOMALY></meanElements><tleParameters><EPHEMERIS_TYPE>0</EPHEMERIS_TYPE><CLASSIFICATION_TYPE>U</CLASSIFICATION_TYPE><NORAD_CAT_ID>25286</NORAD_CAT_ID><ELEMENT_SET_NO>999</ELEMENT_SET_NO><REV_AT_EPOCH>41914</REV_AT_EPOCH><BSTAR>.14018E-3</BSTAR><MEAN_MOTION_DOT>.431E-5</MEAN_MOTION_DOT><MEAN_MOTION_DDOT>0</MEAN_MOTION_DDOT></tleParameters></data></segment></body></omm>
<omm id="CCSDS_OMM_VERS" version="2.0">
<header><CREATION_DATE/><ORIGINATOR/></header><body><segment><metadata><OBJECT_NAME>IRIDIUM 69</OBJECT_NAME><OBJECT_ID>1998-026A</OBJECT_ID><CENTER_NAME>EARTH</CENTER_NAME><REF_FRAME>TEME</REF_FRAME><TIME_SYSTEM>UTC</TIME_SYSTEM><MEAN_ELEMENT_THEORY>SGP4</MEAN_ELEMENT_THEORY></metadata><data><meanElements><EPOCH>2025-05-15T08:17:57.187392</EPOCH><MEAN_MOTION>14.40936272</MEAN_MOTION><ECCENTRICITY>.0004343</ECCENTRICITY><INCLINATION>86.3945</INCLINATION><RA_OF_ASC_NODE>109.3016</RA_OF_ASC_NODE><ARG_OF_PERICENTER>110.2956</ARG_OF_PERICENTER><MEAN_ANOMALY>249.8710</MEAN_ANOMALY></meanElements><tleParameters><EPHEMERIS_TYPE>0</EPHEMERIS_TYPE><CLASSIFICATION_TYPE>U</CLASSIFICATION_TYPE><NORAD_CAT_ID>25319</NORAD_CAT_ID><ELEMENT_SET_NO>999</ELEMENT_SET_NO><REV_AT_EPOCH>41833</REV_AT_EPOCH><BSTAR>.13119E-3</BSTAR><MEAN_MOTION_DOT>.441E-5</MEAN_MOTION_DOT><MEAN_MOTION_DDOT>0</MEAN_MOTION_DDOT></tleParameters></data></segment></body></omm>
<omm id="CCSDS_OMM_VERS" version="2.0">
<header><CREATION_DATE/><ORIGINATOR/></header><body><segment><metadata><OBJECT_NAME>IRIDIUM 71</OBJECT_NAME><OBJECT_ID>1998-026B</OBJECT_ID><CENTER_NAME>EARTH</CENTER_NAME><REF_FRAME>TEME</REF_FRAME><TIME_SYSTEM>UTC</TIME_SYSTEM><MEAN_ELEMENT_THEORY>SGP4</MEAN_ELEMENT_THEORY></metadata><data><meanElements><EPOCH>2025-05-15T08:34:05.909376</EPOCH><MEAN_MOTION>14.41131069</MEAN_MOTION><ECCENTRICITY>.000266</ECCENTRICITY><INCLINATION>86.3944</INCLINATION><RA_OF_ASC_NODE>103.9920</RA_OF_ASC_NODE><ARG_OF_PERICENTER>138.0771</ARG_OF_PERICENTER><MEAN_ANOMALY>222.0633</MEAN_ANOMALY></meanElements><tleParameters><EPHEMERIS_TYPE>0</EPHEMERIS_TYPE><CLASSIFICATION_TYPE>U</CLASSIFICATION_TYPE><NORAD_CAT_ID>25320</NORAD_CAT_ID><ELEMENT_SET_NO>999</ELEMENT_SET_NO><REV_AT_EPOCH>41886</REV_AT_EPOCH><BSTAR>.13473E-3</BSTAR><MEAN_MOTION_DOT>.454E-5</MEAN_MOTION_DOT><MEAN_MOTION_DDOT>0</MEAN_MOTION_DDOT></tleParameters></data></segment></body></omm>
<omm id="CCSDS_OMM_VERS" version="2.0">
<header><CREATION_DATE/><ORIGINATOR/></header><body><segment><metadata><OBJECT_NAME>IRIDIUM 73</OBJECT_NAME><OBJECT_ID>1998-032C</OBJECT_ID><CENTER_NAME>EARTH</CENTER_NAME><REF_FRAME>TEME</REF_FRAME><TIME_SYSTEM>UTC</TIME_SYSTEM><MEAN_ELEMENT_THEORY>SGP4</MEAN_ELEMENT_THEORY></metadata><data><meanElements><EPOCH>2025-05-15T07:41:34.598112</EPOCH><MEAN_MOTION>14.51678706</MEAN_MOTION><ECCENTRICITY>.0002983</ECCENTRICITY><INCLINATION>86.4423</INCLINATION><RA_OF_ASC_NODE>60.7726</RA_OF_ASC_NODE><ARG_OF_PERICENTER>90.0922</ARG_OF_PERICENTER><MEAN_ANOMALY>270.0625</MEAN_ANOMALY></meanElements><tleParameters><EPHEMERIS_TYPE>0</EPHEMERIS_TYPE><CLASSIFICATION_TYPE>U</CLASSIFICATION_TYPE><NORAD_CAT_ID>25344</NORAD_CAT_ID><ELEMENT_SET_NO>999</ELEMENT_SET_NO><REV_AT_EPOCH>42579</REV_AT_EPOCH><BSTAR>.1555E-3</BSTAR><MEAN_MOTION_DOT>.644E-5</MEAN_MOTION_DOT><MEAN_MOTION_DDOT>0</MEAN_MOTION_DDOT></tleParameters></data></segment></body></omm>
<omm id="CCSDS_OMM_VERS" version="2.0">
<header><CREATION_DATE/><ORIGINATOR/></header><body><segment><metadata><OBJECT_NAME>IRIDIUM 82</OBJECT_NAME><OBJECT_ID>1998-051A</OBJECT_ID><CENTER_NAME>EARTH</CENTER_NAME><REF_FRAME>TEME</REF_FRAME><TIME_SYSTEM>UTC</TIME_SYSTEM><MEAN_ELEMENT_THEORY>SGP4</MEAN_ELEMENT_THEORY></metadata><data><meanElements><EPOCH>2025-05-15T11:43:29.226144</EPOCH><MEAN_MOTION>15.30585025</MEAN_MOTION><ECCENTRICITY>.0091042</ECCENTRICITY><INCLINATION>86.3653</INCLINATION><RA_OF_ASC_NODE>125.7973</RA_OF_ASC_NODE><ARG_OF_PERICENTER>62.1904</ARG_OF_PERICENTER><MEAN_ANOMALY>298.8535</MEAN_ANOMALY></meanElements><tleParameters><EPHEMERIS_TYPE>0</EPHEMERIS_TYPE><CLASSIFICATION_TYPE>U</CLASSIFICATION_TYPE><NORAD_CAT_ID>25467</NORAD_CAT_ID><ELEMENT_SET_NO>999</ELEMENT_SET_NO><REV_AT_EPOCH>41895</REV_AT_EPOCH><BSTAR>.80759E-3</BSTAR><MEAN_MOTION_DOT>.27236E-3</MEAN_MOTION_DOT><MEAN_MOTION_DDOT>0</MEAN_MOTION_DDOT></tleParameters></data></segment></body></omm>
</ndm>
