IRIDIUM 63              
1 25286U 98021B   25135.44115697  .00000431  00000+0  14018-3 0  9990
2 25286  86.3955  95.8695 0002399  83.6968 276.4502 14.36520590419146
IRIDIUM 69              
1 25319U 98026A   25135.34580078  .00000441  00000+0  13119-3 0  9992
2 25319  86.3945 109.3016 0004343 110.2956 249.8710 14.40936272418333
IRIDIUM 71              
1 25320U 98026B   25135.35701284  .00000454  00000+0  13473-3 0  9996
2 25320  86.3944 103.9920 0002660 138.0771 222.0633 14.41131069418868
IRIDIUM 73              
1 25344U 98032C   25135.32053933  .00000644  00000+0  15550-3 0  9996
2 25344  86.4423  60.7726 0002983  90.0922 270.0625 14.51678706425793
IRIDIUM 82              
1 25467U 98051A   25135.48853271  .00027236  00000+0  80759-3 0  9992
2 25467  86.3653 125.7973 0091042  62.1904 298.8535 15.30585025418950
